CUTE-1 (CO-55)          
1 27844U 03031E   21136.96046991  .00000055  00000-0  44305-4 0  9999
2 27844  98.6807 145.6508 0010194 163.3736 196.7778 14.22307995927508
CUBESAT XI-IV (CO-57)   
1 27848U 03031J   21136.59243992  .00000039  00000-0  37654-4 0  9993
2 27848  98.6864 145.8543 0009774 177.2349 182.8884 14.21884936927285
CUBESAT XI-V            
1 28895U 05043F   21136.84780505  .00000162  00000-0  39997-4 0  9994
2 28895  98.0541 270.7846 0015621 313.1302  46.8593 14.63907377829385
CUTE-1.7+APD II (CO-65) 
1 32785U 08021C   21136.67483116  .00000298  00000-0  37497-4 0  9998
2 32785  97.6095 116.7552 0014503 106.4949 253.7863 14.88707041707442
AAUSAT-II               
1 32788U 08021F   21136.50839240  .00000466  00000-0  46885-4 0  9994
2 32788  97.5043 132.5074 0012295  24.6609 335.5198 14.95546586709087
DELFI-C3 (DO-64)        
1 32789U 08021G   21136.84985077  .00002189  00000-0  14264-3 0  9991
2 32789  97.3779 173.4323 0010199 247.3035 112.7117 15.08880499712068
SEEDS II (CO-66)        
1 32791U 08021J   21136.49324289  .00000523  00000-0  57715-4 0  9996
2 32791  97.5699 122.5245 0014828  74.6960 285.5897 14.91383253708014
SWISSCUBE               
1 35932U 09051B   21136.54873968  .00000152  00000-0  45183-4 0  9993
2 35932  98.6050 335.5640 0007500 176.3851 183.7402 14.56528211618310
BEESAT-1                
1 35933U 09051C   21136.51563345  .00000123  00000-0  38684-4 0  9992
2 35933  98.6015 337.3587 0005440 186.7198 173.3927 14.56586917618383
ITUPSAT1                
1 35935U 09051E   21136.50078308  .00000106  00000-0  35371-4 0  9994
2 35935  98.6120 337.4879 0007710 191.2888 168.8137 14.55720277618128
TISAT 1                 
1 36799U 10035E   21136.45541273  .00000460  00000-0  51802-4 0  9997
2 36799  98.2068 325.9775 0011250 324.2845  35.7619 14.91713086588567
M-CUBED & EXP-1 PRIME   
1 37855U 11061F   21136.69992405  .00001249  00000-0  67474-4 0  9992
2 37855 101.7141  43.6425 0167158 165.0895 195.5334 15.07555380521390
AEROCUBE 4.5A           
1 38767U 12048K   21136.70139231  .00000312  00000-0  39542-4 0  9998
2 38767  64.6657 274.0214 0148963  17.0557 343.5482 14.92754014 91537
AEROCUBE 4.5B           
1 38768U 12048L   21136.61070997  .00000522  00000-0  51770-4 0  9992
2 38768  64.6667 236.8110 0140808  11.4729 348.9536 14.96604004 91726
STRAND-1                
1 39090U 13009E   21136.61506581 -.00000035  00000-0  27628-5 0  9998
2 39090  98.4304 339.5669 0009591  20.9125 339.2451 14.35174841430478
SOMP                    
1 39134U 13015E   21136.71920767  .00002059  00000-0  97282-4 0  9990
2 39134  64.8637 275.6555 0005663 298.8417  61.2143 15.22475873446386
BEESAT-3                
1 39135U 13015F   21136.84934781  .00001483  00000-0  79276-4 0  9999
2 39135  64.8677 303.9048 0001708 206.8955 153.2084 15.19293388445835
BEESAT-2                
1 39136U 13015G   21136.70214441  .00001223  00000-0  68011-4 0  9996
2 39136  64.8742 310.6418 0025445 249.0097 110.8307 15.18654716445679
NEE-01 PEGASO           
1 39151U 13018B   21136.72422488  .00000216  00000-0  35198-4 0  9991
2 39151  97.9767 239.3689 0018432 100.5271 259.8019 14.80339795434970
ESTCUBE 1               
1 39161U 13021C   21132.94425094 -.00000046  00000-0  46929-6 0  9990
2 39161  97.9367 214.9511 0008046 262.6391  97.3869 14.72468665430528
POPACS 1                
1 39268U 13055D   21136.43577866  .00002290  00000-0  61637-4 0  9991
2 39268  80.9984 303.3631 0603263 311.0460  44.0049 14.42436830395948
POPACS 2                
1 39269U 13055E   21136.61760544  .00004361  00000-0  12148-3 0  9992
2 39269  81.0135 349.2262 0669667  69.8123 297.3765 14.27653879393484
POPACS 3                
1 39270U 13055F   21136.63870306  .00002412  00000-0  73031-4 0  9998
2 39270  81.0176  15.6351 0704537 145.0499 219.9110 14.18315101372331
ZACUBE-1 (TSHEPISOSAT)  
1 39417U 13066B   21136.50345781  .00000256  00000-0  38392-4 0  9998
2 39417  97.5915 122.4886 0056992 265.8411  93.6288 14.81501839404342
WNISAT-1                
1 39423U 13066H   21136.72061908  .00000147  00000-0  39393-4 0  9996
2 39423  97.7949  41.4035 0174179 296.5498  61.7938 14.53215961396837
TRITON-1                
1 39427U 13066M   21136.76302608  .00000324  00000-0  58836-4 0  9999
2 39427  97.7729  86.1136 0114857  92.2773 269.1589 14.68218584400561
GOMX-1                  
1 39430U 13066Q   21136.79223483  .00000200  00000-0  45340-4 0  9998
2 39430  97.8135  61.6808 0149486 214.2372 144.9134 14.59600041398428
CUBEBUG-2 (LO-74)       
1 39440U 13066AA  21136.45953664  .00000324  00000-0  51770-4 0  9994
2 39440  97.6740 107.3869 0079396 340.4645  19.3527 14.76230359401708
NEE-02 KRYSAOR          
1 39441U 13066AB  21136.90541473  .00000225  00000-0  39039-4 0  9990
2 39441  97.6837 105.1650 0081255 349.8906  10.0665 14.75173442401563
FUNCUBE-1 (AO-73)       
1 39444U 13066AE  21136.50714077  .00000320  00000-0  45394-4 0  9998
2 39444  97.5825 124.8507 0056076 256.0929 103.4044 14.82405950402703
UWE-3                   
1 39446U 13066AG  21136.48696010  .00000286  00000-0  44461-4 0  9998
2 39446  97.6352 114.3786 0068382 304.3673  55.1083 14.78768758401786
AEROCUBE 5A             
1 39465U 13072D   21136.50819511  .00009935  00000-0  77374-3 0  9990
2 39465 120.4948 292.9962 0246661 225.5664 132.4962 14.81038811 90619
AEROCUBE 5B             
1 39466U 13072E   21136.63946673  .00007306  00000-0  47967-3 0  9990
2 39466 120.4701 349.0351 0211520 238.8636 119.1519 14.92411657 91183
BRITE-CA1 (TORONTO)     
1 40020U 14033L   21136.54161738  .00000077  00000-0  21189-4 0  9994
2 40020  97.7412 311.8278 0088759  89.7563 271.3812 14.66735619369474
DUCHIFAT-1              
1 40021U 14033M   21136.39616119  .00000503  00000-0  56308-4 0  9991
2 40021  97.9710  76.2518 0011260 271.1110  88.8818 14.91311479375505
NANOSATC-BR1            
1 40024U 14033Q   21136.74525037  .00000434  00000-0  50448-4 0  9993
2 40024  97.9503  71.7855 0010600 276.1022  83.8988 14.90415093374874
QB50P1                  
1 40025U 14033R   21136.77703394  .00000334  00000-0  41150-4 0  9990
2 40025  97.9323  67.3820 0010936 285.2898  74.7110 14.89421747374701
QB50P2                  
1 40032U 14033Y   21136.73244156  .00000366  00000-0  45005-4 0  9998
2 40032  97.9164  63.9926 0010333 282.7008  77.3054 14.88931330374571
PERSEUS-M2              
1 40037U 14033AD  21136.71056908  .00000125  00000-0  20326-4 0  9999
2 40037  97.8908  56.5714 0013135 303.0812  56.9141 14.86665253374179
PERSEUS-M1              
1 40039U 14033AF  21136.73780895  .00000147  00000-0  22903-4 0  9999
2 40039  97.8848  54.9815 0012958 301.3782  58.6165 14.86285385374075
POLYITAN-1              
1 40042U 14033AJ  21136.75751649  .00000479  00000-0  56681-4 0  9998
2 40042  97.9416  68.1417 0013117 275.6554  84.3167 14.89225764374597
TIGRISAT                
1 40043U 14033AK  21136.56262595  .00000154  00000-0  29930-4 0  9992
2 40043  97.6758 342.0482 0059902   2.9229 357.2319 14.74524993371130
AEROCUBE 6A             
1 40045U 14033AM  21136.54938858  .00000234  00000-0  40567-4 0  9992
2 40045  97.6988 349.1497 0057690 353.0653   6.9753 14.75798185371232
AEROCUBE 6B             
1 40046U 14033AN  21136.55792091  .00000369  00000-0  59647-4 0  9999
2 40046  97.6885 348.0333 0056642 351.8941   8.1348 14.75830162371234
UKUBE-1                 
1 40074U 14037F   21136.90277069  .00000368  00000-0  50826-4 0  9995
2 40074  98.4327 350.8655 0005099 116.7270 243.4471 14.84536505371220
BRITE-PL2 (HEWELIUSZ)   
1 40119U 14049B   21136.48232648  .00000154  00000-0  24586-4 0  9992
2 40119  97.8861 231.3042 0018850 100.1665 260.1676 14.84645222365103
FIREBIRD 4              
1 40378U 15003C   21136.32183381  .00002130  00000-0  81057-4 0  9994
2 40378  99.0955 270.9742 0117129 280.4456  78.3593 15.22240613347906
GRIFEX                  
1 40379U 15003D   21136.63066639  .00001308  00000-0  56846-4 0  9999
2 40379  99.0909 260.9415 0127845 311.5241  47.5074 15.17923779347352
CP10 (EXOCUBE)          
1 40380U 15003E   21136.57911599  .00001085  00000-0  50437-4 0  9990
2 40380  99.0921 255.4382 0133729 330.3521  29.0172 15.15629302346983
AEROCUBE 8A             
1 40659U 15025J   21136.62528140  .00039978  10975-4  24110-3 0  9991
2 40659  55.0058 174.2131 0064554 335.1718  24.6224 15.75719514 95706
AEROCUBE 8B             
1 40660U 15025K   21136.54848117  .00042530  11076-4  24492-3 0  9997
2 40660  55.0026 171.1059 0063074 337.7578  22.0733 15.76746636 95721
TIANWANG 1A (TW-1A)     
1 40928U 15051D   21136.87470345  .00006211  00000-0  13077-3 0  9997
2 40928  97.0780 162.5394 0011228  56.2386  26.6952 15.45562387316815
EXACTVIEW 9             
1 40936U 15052G   21136.48956666  .00000815  00000-0  24558-4 0  9990
2 40936   6.0025 125.3399 0010936 295.7169  64.1830 14.76695198304439
AEROCUBE 5C             
1 40965U 15058B   21136.62102897  .00000095  00000-0  29114-4 0  9996
2 40965  64.7771 214.6134 0202301 320.3593  38.2865 14.74746382 90436
AEROCUBE 7              
1 40966U 15058C   21136.66416114  .00000181  00000-0  38127-4 0  9991
2 40966  64.7771 212.4592 0201202 320.0015  38.6412 14.75097926 90432
ATHENOXAT 1             
1 41168U 15077C   21136.36131829  .00002763  00000-0  10513-3 0  9997
2 41168  14.9875 136.9422 0011713  83.4059  54.1593 15.15600211299903
GALASSIA                
1 41170U 15077E   21135.07448469  .00002196  00000-0  75620-4 0  9999
2 41170  14.9876 137.1842 0012214  97.4669 262.7040 15.15813652299634
VELOX-II                
1 41171U 15077F   21136.45352107  .00001747  00000-0  59658-4 0  9990
2 41171  14.9900 183.4158 0008587 349.8027  10.2119 15.12491508299426
HORYU-4                 
1 41340U 16012D   21136.91702329  .00000624  00000-0  39998-4 0  9992
2 41340  31.0065   7.6570 0013922 220.2138 139.7468 15.01867775288046
